{
  "type": "FeatureCollection",
  "features": [
    {
      "type": "Feature",
      "properties": {
        "norad_id": 32376,
        "name": "COSMO-SKYMED 2",
        "group": "resource",
        "lat": -77.63640052374461,
        "lon": -158.4515378988668,
        "alt_km": 630.9073050458192,
        "timestamp": "2025-12-06T22:38:42.391492+00:00",
        "meta_object_name": "COSMO-SKYMED 2",
        "meta_object_id": "2007-059A",
        "meta_epoch": "2025-12-06T14:54:23.119488",
        "meta_mean_motion": 14.82154429,
        "meta_eccentricity": 0.00015264,
        "meta_inclination": 97.8813,
        "meta_ra_of_asc_node": 162.0369,
        "meta_arg_of_pericenter": 86.8899,
        "meta_mean_anomaly": 273.2489,
        "meta_ephemeris_type": 0,
        "meta_classification_type": "U",
        "meta_norad_cat_id": 32376,
        "meta_element_set_no": 999,
        "meta_rev_at_epoch": 97347,
        "meta_bstar": 0.00014670279,
        "meta_mean_motion_dot": 1.116e-05,
        "meta_mean_motion_ddot": 0,
        "tle_line1": "1 32376U 07059A   25340.62110092  .00001116  00000+0  14670-3 0  9996",
        "tle_line2": "2 32376  97.8813 162.0369 0001526  86.8899 273.2489 14.82154429973473"
      },
      "geometry": {
        "type": "Point",
        "coordinates": [
          -158.4515378988668,
          -77.63640052374461
        ]
      }
    },
    {
      "type": "Feature",
      "properties": {
        "norad_id": 32382,
        "name": "RADARSAT-2",
        "group": "resource",
        "lat": -54.545855154237586,
        "lon": 153.37756595873788,
        "alt_km": 799.409170710639,
        "timestamp": "2025-12-06T22:38:42.391503+00:00",
        "meta_object_name": "RADARSAT-2",
        "meta_object_id": "2007-061A",
        "meta_epoch": "2025-12-06T14:49:49.822464",
        "meta_mean_motion": 14.29985,
        "meta_eccentricity": 0.00010791,
        "meta_inclination": 98.5798,
        "meta_ra_of_asc_node": 345.2971,
        "meta_arg_of_pericenter": 91.2642,
        "meta_mean_anomaly": 268.8664,
        "meta_ephemeris_type": 0,
        "meta_classification_type": "U",
        "meta_norad_cat_id": 32382,
        "meta_element_set_no": 999,
        "meta_rev_at_epoch": 93843,
        "meta_bstar": 8.0552038e-05,
        "meta_mean_motion_dot": 1.64e-06,
        "meta_mean_motion_ddot": 0,
        "tle_line1": "1 32382U 07061A   25340.61793776  .00000164  00000+0  80552-4 0  9996",
        "tle_line2": "2 32382  98.5798 345.2971 0001079  91.2642 268.8664 14.29985000938433"
      },
      "geometry": {
        "type": "Point",
        "coordinates": [
          153.37756595873788,
          -54.545855154237586
        ]
      }
    },
    {
      "type": "Feature",
      "properties": {
        "norad_id": 32783,
        "name": "CARTOSAT-2A",
        "group": "resource",
        "lat": 52.45286059036375,
        "lon": -138.7873619647793,
        "alt_km": 629.9115410988916,
        "timestamp": "2025-12-06T22:38:42.391513+00:00",
        "meta_object_name": "CARTOSAT-2A",
        "meta_object_id": "2008-021A",
        "meta_epoch": "2025-12-06T15:34:46.204032",
        "meta_mean_motion": 14.78920212,
        "meta_eccentricity": 0.00122701,
        "meta_inclination": 97.7939,
        "meta_ra_of_asc_node": 30.6628,
        "meta_arg_of_pericenter": 23.8162,
        "meta_mean_anomaly": 336.3615,
        "meta_ephemeris_type": 0,
        "meta_classification_type": "U",
        "meta_norad_cat_id": 32783,
        "meta_element_set_no": 999,
        "meta_rev_at_epoch": 95034,
        "meta_bstar": 0.00024041243,
        "meta_mean_motion_dot": 1.724e-05,
        "meta_mean_motion_ddot": 0,
        "tle_line1": "1 32783U 08021A   25340.64914588  .00001724  00000+0  24041-3 0  9990",
        "tle_line2": "2 32783  97.7939  30.6628 0012270  23.8162 336.3615 14.78920212950342"
      },
      "geometry": {
        "type": "Point",
        "coordinates": [
          -138.7873619647793,
          52.45286059036375
        ]
      }
    },
    {
      "type": "Feature",
      "properties": {
        "norad_id": 33320,
        "name": "HUANJING 1A (HJ-1A)",
        "group": "resource",
        "lat": -76.83627601989288,
        "lon": 114.38788701654892,
        "alt_km": 638.8761478836577,
        "timestamp": "2025-12-06T22:38:42.391524+00:00",
        "meta_object_name": "HUANJING 1A (HJ-1A)",
        "meta_object_id": "2008-041A",
        "meta_epoch": "2025-12-06T15:00:16.137792",
        "meta_mean_motion": 14.83365029,
        "meta_eccentricity": 0.00205029,
        "meta_inclination": 97.6535,
        "meta_ra_of_asc_node": 329.1791,
        "meta_arg_of_pericenter": 53.6274,
        "meta_mean_anomaly": 306.6829,
        "meta_ephemeris_type": 0,
        "meta_classification_type": "U",
        "meta_norad_cat_id": 33320,
        "meta_element_set_no": 999,
        "meta_rev_at_epoch": 92985,
        "meta_bstar": 0.00035351491,
        "meta_mean_motion_dot": 2.858e-05,
        "meta_mean_motion_ddot": 0,
        "tle_line1": "1 33320U 08041A   25340.62518678  .00002858  00000+0  35351-3 0  9993",
        "tle_line2": "2 33320  97.6535 329.1791 0020502  53.6274 306.6829 14.83365029929854"
      },
      "geometry": {
        "type": "Point",
        "coordinates": [
          114.38788701654892,
          -76.83627601989288
        ]
      }
    },
    {
      "type": "Feature",
      "properties": {
        "norad_id": 33321,
        "name": "HUANJING 1B (HJ-1B)",
        "group": "resource",
        "lat": 46.75831499169862,
        "lon": 161.401523238793,
        "alt_km": 595.4250073795083,
        "timestamp": "2025-12-06T22:38:42.391534+00:00",
        "meta_object_name": "HUANJING 1B (HJ-1B)",
        "meta_object_id": "2008-041B",
        "meta_epoch": "2025-12-06T13:57:16.018560",
        "meta_mean_motion": 14.82797156,
        "meta_eccentricity": 0.00382619,
        "meta_inclination": 97.6394,
        "meta_ra_of_asc_node": 332.8502,
        "meta_arg_of_pericenter": 95.2846,
        "meta_mean_anomaly": 265.2736,
        "meta_ephemeris_type": 0,
        "meta_classification_type": "U",
        "meta_norad_cat_id": 33321,
        "meta_element_set_no": 999,
        "meta_rev_at_epoch": 92986,
        "meta_bstar": 0.0002969466,
        "meta_mean_motion_dot": 2.381e-05,
        "meta_mean_motion_ddot": 0,
        "tle_line1": "1 33321U 08041B   25340.58143540  .00002381  00000+0  29695-3 0  9996",
        "tle_line2": "2 33321  97.6394 332.8502 0038261  95.2846 265.2736 14.82797156929864"
      },
      "geometry": {
        "type": "Point",
        "coordinates": [
          161.401523238793,
          46.75831499169862
        ]
      }
    },
    {
      "type": "Feature",
      "properties": {
        "norad_id": 33331,
        "name": "GEOEYE 1",
        "group": "resource",
        "lat": 45.89389411503691,
        "lon": -119.22684567131385,
        "alt_km": 675.7084497256274,
        "timestamp": "2025-12-06T22:38:42.391545+00:00",
        "meta_object_name": "GEOEYE 1",
        "meta_object_id": "2008-042A",
        "meta_epoch": "2025-12-06T15:28:48.644544",
        "meta_mean_motion": 14.64800067,
        "meta_eccentricity": 0.00028522,
        "meta_inclination": 98.1259,
        "meta_ra_of_asc_node": 52.0017,
        "meta_arg_of_pericenter": 303.6794,
        "meta_mean_anomaly": 56.4137,
        "meta_ephemeris_type": 0,
        "meta_classification_type": "U",
        "meta_norad_cat_id": 33331,
        "meta_element_set_no": 999,
        "meta_rev_at_epoch": 92196,
        "meta_bstar": 0.00024072527,
        "meta_mean_motion_dot": 1.237e-05,
        "meta_mean_motion_ddot": 0,
        "tle_line1": "1 33331U 08042A   25340.64500746  .00001237  00000+0  24073-3 0  9994",
        "tle_line2": "2 33331  98.1259  52.0017 0002852 303.6794  56.4137 14.64800067921962"
      },
      "geometry": {
        "type": "Point",
        "coordinates": [
          -119.22684567131385,
          45.89389411503691
        ]
      }
    },
    {
      "type": "Feature",
      "properties": {
        "norad_id": 33396,
        "name": "THEOS",
        "group": "resource",
        "lat": -21.5532211670146,
        "lon": -144.21788067401204,
        "alt_km": 830.4624800083038,
        "timestamp": "2025-12-06T22:38:42.391555+00:00",
        "meta_object_name": "THEOS",
        "meta_object_id": "2008-049A",
        "meta_epoch": "2025-12-06T14:56:03.960384",
        "meta_mean_motion": 14.20094544,
        "meta_eccentricity": 0.00011075,
        "meta_inclination": 98.5878,
        "meta_ra_of_asc_node": 38.8922,
        "meta_arg_of_pericenter": 99.9859,
        "meta_mean_anomaly": 260.1443,
        "meta_ephemeris_type": 0,
        "meta_classification_type": "U",
        "meta_norad_cat_id": 33396,
        "meta_element_set_no": 999,
        "meta_rev_at_epoch": 89063,
        "meta_bstar": 0.00010097756,
        "meta_mean_motion_dot": 1.73e-06,
        "meta_mean_motion_ddot": 0,
        "tle_line1": "1 33396U 08049A   25340.62226806  .00000173  00000+0  10098-3 0  9992",
        "tle_line2": "2 33396  98.5878  38.8922 0001107  99.9859 260.1443 14.20094544890630"
      },
      "geometry": {
        "type": "Point",
        "coordinates": [
          -144.21788067401204,
          -21.5532211670146
        ]
      }
    }
  ]
}